{"fetched_at":"2026-07-16T17:46:07.288Z","source":"https://celestrak.org/NORAD/elements/gp.php?GROUP=planet&FORMAT=JSON","constellation":"skysat","records":[{"OBJECT_NAME":"SKYSAT-A","OBJECT_ID":"2013-066C","EPOCH":"2026-07-16T02:11:55.333824","CLASSIFICATION_TYPE":"U","MEAN_MOTION":15.13117895,"ECCENTRICITY":0.0020616,"INCLINATION":97.3803,"RA_OF_ASC_NODE":245.5676,"ARG_OF_PERICENTER":210.1814,"MEAN_ANOMALY":149.8231,"EPHEMERIS_TYPE":0,"NORAD_CAT_ID":39418,"ELEMENT_SET_NO":999,"REV_AT_EPOCH":69285,"BSTAR":0.000086164243,"MEAN_MOTION_DOT":0.00001469,"MEAN_MOTION_DDOT":0},{"OBJECT_NAME":"SKYSAT-B","OBJECT_ID":"2014-037D","EPOCH":"2026-07-15T20:06:04.998240","CLASSIFICATION_TYPE":"U","MEAN_MOTION":14.88092801,"ECCENTRICITY":0.00056261,"INCLINATION":98.3854,"RA_OF_ASC_NODE":157.4397,"ARG_OF_PERICENTER":170.7304,"MEAN_ANOMALY":189.4016,"EPHEMERIS_TYPE":0,"NORAD_CAT_ID":40072,"ELEMENT_SET_NO":999,"REV_AT_EPOCH":65022,"BSTAR":0.000071933668,"MEAN_MOTION_DOT":0.000006,"MEAN_MOTION_DDOT":0},{"OBJECT_NAME":"SKYSAT-C1","OBJECT_ID":"2016-040C","EPOCH":"2026-07-16T01:35:22.164864","CLASSIFICATION_TYPE":"U","MEAN_MOTION":15.36756692,"ECCENTRICITY":0.00002422,"INCLINATION":96.9548,"RA_OF_ASC_NODE":227.2267,"ARG_OF_PERICENTER":270.9948,"MEAN_ANOMALY":89.127,"EPHEMERIS_TYPE":0,"NORAD_CAT_ID":41601,"ELEMENT_SET_NO":999,"REV_AT_EPOCH":56230,"BSTAR":0.00014048183,"MEAN_MOTION_DOT":0.0000497,"MEAN_MOTION_DDOT":0},{"OBJECT_NAME":"SKYSAT-C4","OBJECT_ID":"2016-058B","EPOCH":"2026-07-16T00:20:15.519264","CLASSIFICATION_TYPE":"U","MEAN_MOTION":15.49453903,"ECCENTRICITY":0.00034733,"INCLINATION":96.9159,"RA_OF_ASC_NODE":217.5942,"ARG_OF_PERICENTER":115.8842,"MEAN_ANOMALY":244.2768,"EPHEMERIS_TYPE":0,"NORAD_CAT_ID":41771,"ELEMENT_SET_NO":999,"REV_AT_EPOCH":54993,"BSTAR":0.0001854536,"MEAN_MOTION_DOT":0.00010111,"MEAN_MOTION_DDOT":0},{"OBJECT_NAME":"SKYSAT-C5","OBJECT_ID":"2016-058C","EPOCH":"2026-07-16T01:25:36.323616","CLASSIFICATION_TYPE":"U","MEAN_MOTION":15.33726186,"ECCENTRICITY":0.00026394,"INCLINATION":97.0452,"RA_OF_ASC_NODE":236.404,"ARG_OF_PERICENTER":158.1858,"MEAN_ANOMALY":201.9499,"EPHEMERIS_TYPE":0,"NORAD_CAT_ID":41772,"ELEMENT_SET_NO":999,"REV_AT_EPOCH":54817,"BSTAR":0.00012489111,"MEAN_MOTION_DOT":0.00003999,"MEAN_MOTION_DDOT":0},{"OBJECT_NAME":"SKYSAT-C2","OBJECT_ID":"2016-058D","EPOCH":"2026-07-16T07:46:44.352480","CLASSIFICATION_TYPE":"U","MEAN_MOTION":15.42695154,"ECCENTRICITY":0.00012639,"INCLINATION":97.0156,"RA_OF_ASC_NODE":218.3332,"ARG_OF_PERICENTER":348.1707,"MEAN_ANOMALY":11.9512,"EPHEMERIS_TYPE":0,"NORAD_CAT_ID":41773,"ELEMENT_SET_NO":999,"REV_AT_EPOCH":54954,"BSTAR":0.0001521296,"MEAN_MOTION_DOT":0.00006554,"MEAN_MOTION_DDOT":0},{"OBJECT_NAME":"SKYSAT-C3","OBJECT_ID":"2016-058E","EPOCH":"2026-07-16T01:42:57.046176","CLASSIFICATION_TYPE":"U","MEAN_MOTION":15.53733168,"ECCENTRICITY":0.00025586,"INCLINATION":96.8989,"RA_OF_ASC_NODE":226.8279,"ARG_OF_PERICENTER":131.8662,"MEAN_ANOMALY":228.2811,"EPHEMERIS_TYPE":0,"NORAD_CAT_ID":41774,"ELEMENT_SET_NO":999,"REV_AT_EPOCH":55059,"BSTAR":0.00023539668,"MEAN_MOTION_DOT":0.00014988,"MEAN_MOTION_DDOT":0},{"OBJECT_NAME":"SKYSAT-C11","OBJECT_ID":"2017-068A","EPOCH":"2026-07-15T22:44:37.353984","CLASSIFICATION_TYPE":"U","MEAN_MOTION":15.5935113,"ECCENTRICITY":0.0001161,"INCLINATION":97.4381,"RA_OF_ASC_NODE":347.0668,"ARG_OF_PERICENTER":158.9178,"MEAN_ANOMALY":201.2126,"EPHEMERIS_TYPE":0,"NORAD_CAT_ID":42987,"ELEMENT_SET_NO":999,"REV_AT_EPOCH":48772,"BSTAR":0.00023691,"MEAN_MOTION_DOT":0.00018575,"MEAN_MOTION_DDOT":0},{"OBJECT_NAME":"SKYSAT-C10","OBJECT_ID":"2017-068B","EPOCH":"2026-07-15T21:53:46.494816","CLASSIFICATION_TYPE":"U","MEAN_MOTION":15.35125075,"ECCENTRICITY":0.0001465,"INCLINATION":97.4542,"RA_OF_ASC_NODE":334.0538,"ARG_OF_PERICENTER":110.9376,"MEAN_ANOMALY":249.2024,"EPHEMERIS_TYPE":0,"NORAD_CAT_ID":42988,"ELEMENT_SET_NO":999,"REV_AT_EPOCH":48676,"BSTAR":0.00017869,"MEAN_MOTION_DOT":0.00006009,"MEAN_MOTION_DDOT":0},{"OBJECT_NAME":"SKYSAT-C9","OBJECT_ID":"2017-068C","EPOCH":"2026-07-15T22:09:36.659808","CLASSIFICATION_TYPE":"U","MEAN_MOTION":15.42224961,"ECCENTRICITY":0.0008579,"INCLINATION":97.4461,"RA_OF_ASC_NODE":335.2786,"ARG_OF_PERICENTER":42.5748,"MEAN_ANOMALY":317.6163,"EPHEMERIS_TYPE":0,"NORAD_CAT_ID":42989,"ELEMENT_SET_NO":999,"REV_AT_EPOCH":48718,"BSTAR":0.00017585,"MEAN_MOTION_DOT":0.00007471,"MEAN_MOTION_DDOT":0},{"OBJECT_NAME":"SKYSAT-C8","OBJECT_ID":"2017-068D","EPOCH":"2026-07-15T21:42:38.583072","CLASSIFICATION_TYPE":"U","MEAN_MOTION":15.3749951,"ECCENTRICITY":0.0001213,"INCLINATION":97.4558,"RA_OF_ASC_NODE":333.9566,"ARG_OF_PERICENTER":103.385,"MEAN_ANOMALY":256.753,"EPHEMERIS_TYPE":0,"NORAD_CAT_ID":42990,"ELEMENT_SET_NO":999,"REV_AT_EPOCH":48672,"BSTAR":0.0001604,"MEAN_MOTION_DOT":0.00005815,"MEAN_MOTION_DDOT":0},{"OBJECT_NAME":"SKYSAT-C7","OBJECT_ID":"2017-068E","EPOCH":"2026-07-15T21:34:43.893696","CLASSIFICATION_TYPE":"U","MEAN_MOTION":15.37449994,"ECCENTRICITY":0.0005668,"INCLINATION":97.4569,"RA_OF_ASC_NODE":334.9426,"ARG_OF_PERICENTER":18.9667,"MEAN_ANOMALY":341.1787,"EPHEMERIS_TYPE":0,"NORAD_CAT_ID":42991,"ELEMENT_SET_NO":999,"REV_AT_EPOCH":48678,"BSTAR":0.00015897,"MEAN_MOTION_DOT":0.00005755,"MEAN_MOTION_DDOT":0},{"OBJECT_NAME":"SKYSAT-C6","OBJECT_ID":"2017-068F","EPOCH":"2026-07-15T21:51:05.776992","CLASSIFICATION_TYPE":"U","MEAN_MOTION":15.34176907,"ECCENTRICITY":0.0005082,"INCLINATION":97.4607,"RA_OF_ASC_NODE":334.8045,"ARG_OF_PERICENTER":87.6386,"MEAN_ANOMALY":272.5438,"EPHEMERIS_TYPE":0,"NORAD_CAT_ID":42992,"ELEMENT_SET_NO":999,"REV_AT_EPOCH":48672,"BSTAR":0.00015543,"MEAN_MOTION_DOT":0.00005061,"MEAN_MOTION_DDOT":0},{"OBJECT_NAME":"SKYSAT-C12","OBJECT_ID":"2018-099AR","EPOCH":"2026-07-16T03:47:21.028992","CLASSIFICATION_TYPE":"U","MEAN_MOTION":15.4980658,"ECCENTRICITY":0.00052865,"INCLINATION":96.9251,"RA_OF_ASC_NODE":219.2457,"ARG_OF_PERICENTER":68.2263,"MEAN_ANOMALY":291.9552,"EPHEMERIS_TYPE":0,"NORAD_CAT_ID":43797,"ELEMENT_SET_NO":999,"REV_AT_EPOCH":42634,"BSTAR":0.00018297233,"MEAN_MOTION_DOT":0.00010102,"MEAN_MOTION_DDOT":0}]}
